{
  "links" : {
    "next" : "https://api.nasa.gov/neo/rest/v1/feed?start_date=1997-06-09&end_date=1997-06-09&detailed=true&api_key=t0TVs3DtDT2H8Oy2Zy8m2eVrNsAVKAexjcZXUckd",
    "prev" : "https://api.nasa.gov/neo/rest/v1/feed?start_date=1997-06-07&end_date=1997-06-07&detailed=true&api_key=t0TVs3DtDT2H8Oy2Zy8m2eVrNsAVKAexjcZXUckd",
    "self" : "https://api.nasa.gov/neo/rest/v1/feed?start_date=1997-06-08&end_date=1997-06-08&detailed=true&api_key=t0TVs3DtDT2H8Oy2Zy8m2eVrNsAVKAexjcZXUckd"
  },
  "element_count" : 3,
  "near_earth_objects" : {
    "1997-06-08" : [ {
      "links" : {
        "self" : "https://api.nasa.gov/neo/rest/v1/neo/3409688?api_key=t0TVs3DtDT2H8Oy2Zy8m2eVrNsAVKAexjcZXUckd"
      },
      "neo_reference_id" : "3409688",
      "name" : "(2008 HS3)",
      "nasa_jpl_url" : "http://ssd.jpl.nasa.gov/sbdb.cgi?sstr=3409688",
      "absolute_magnitude_h" : 21.7,
      "estimated_diameter" : {
        "kilometers" : {
          "estimated_diameter_min" : 0.1214940408,
          "estimated_diameter_max" : 0.2716689341
        },
        "meters" : {
          "estimated_diameter_min" : 121.4940407996,
          "estimated_diameter_max" : 271.6689340891
        },
        "miles" : {
          "estimated_diameter_min" : 0.0754928736,
          "estimated_diameter_max" : 0.1688071972
        },
        "feet" : {
          "estimated_diameter_min" : 398.6025088171,
          "estimated_diameter_max" : 891.3023057169
        }
      },
      "is_potentially_hazardous_asteroid" : true,
      "close_approach_data" : [ {
        "close_approach_date" : "1997-06-08",
        "epoch_date_close_approach" : 865753200000,
        "relative_velocity" : {
          "kilometers_per_second" : "8.6211466168",
          "kilometers_per_hour" : "31036.1278206356",
          "miles_per_hour" : "19284.6428672166"
        },
        "miss_distance" : {
          "astronomical" : "0.2119089931",
          "lunar" : "82.4326019287",
          "kilometers" : "31701134",
          "miles" : "19698172"
        },
        "orbiting_body" : "Earth"
      } ],
      "orbital_data" : {
        "orbit_id" : "67",
        "orbit_determination_date" : "2017-04-06 09:03:36",
        "orbit_uncertainty" : "0",
        "minimum_orbit_intersection" : ".0373312",
        "jupiter_tisserand_invariant" : "4.834",
        "epoch_osculation" : "2458000.5",
        "eccentricity" : ".2259752381751483",
        "semi_major_axis" : "1.350962241259223",
        "inclination" : "8.177685917223553",
        "ascending_node_longitude" : "227.8057598449501",
        "orbital_period" : "573.5393808730028",
        "perihelion_distance" : "1.045678227025038",
        "perihelion_argument" : "4.639511505597016",
        "aphelion_distance" : "1.656246255493408",
        "perihelion_time" : "2458043.044494711252",
        "mean_anomaly" : "333.2956121116956",
        "mean_motion" : ".6276813973123038",
        "equinox" : "J2000"
      }
    }, {
      "links" : {
        "self" : "https://api.nasa.gov/neo/rest/v1/neo/3654336?api_key=t0TVs3DtDT2H8Oy2Zy8m2eVrNsAVKAexjcZXUckd"
      },
      "neo_reference_id" : "3654336",
      "name" : "(2013 XS3)",
      "nasa_jpl_url" : "http://ssd.jpl.nasa.gov/sbdb.cgi?sstr=3654336",
      "absolute_magnitude_h" : 20.1,
      "estimated_diameter" : {
        "kilometers" : {
          "estimated_diameter_min" : 0.2538370294,
          "estimated_diameter_max" : 0.5675968529
        },
        "meters" : {
          "estimated_diameter_min" : 253.8370293645,
          "estimated_diameter_max" : 567.5968528656
        },
        "miles" : {
          "estimated_diameter_min" : 0.1577269688,
          "estimated_diameter_max" : 0.3526882241
        },
        "feet" : {
          "estimated_diameter_min" : 832.7986794202,
          "estimated_diameter_max" : 1862.1944587557
        }
      },
      "is_potentially_hazardous_asteroid" : false,
      "close_approach_data" : [ {
        "close_approach_date" : "1997-06-08",
        "epoch_date_close_approach" : 865753200000,
        "relative_velocity" : {
          "kilometers_per_second" : "20.3144573136",
          "kilometers_per_hour" : "73132.046328991",
          "miles_per_hour" : "45441.4095648111"
        },
        "miss_distance" : {
          "astronomical" : "0.2800067623",
          "lunar" : "108.9226303101",
          "kilometers" : "41888416",
          "miles" : "26028256"
        },
        "orbiting_body" : "Earth"
      } ],
      "orbital_data" : {
        "orbit_id" : "16",
        "orbit_determination_date" : "2017-04-06 08:43:26",
        "orbit_uncertainty" : "3",
        "minimum_orbit_intersection" : ".279136",
        "jupiter_tisserand_invariant" : "5.117",
        "epoch_osculation" : "2458000.5",
        "eccentricity" : ".4012569993780504",
        "semi_major_axis" : "1.19915495273952",
        "inclination" : "27.75732036731416",
        "ascending_node_longitude" : "251.4601707107075",
        "orbital_period" : "479.6355722431564",
        "perihelion_distance" : ".7179856346139326",
        "perihelion_argument" : "341.0233991159489",
        "aphelion_distance" : "1.680324270865108",
        "perihelion_time" : "2457787.811514802429",
        "mean_anomaly" : "159.6375646473293",
        "mean_motion" : ".7505698510149161",
        "equinox" : "J2000"
      }
    }, {
      "links" : {
        "self" : "https://api.nasa.gov/neo/rest/v1/neo/3666542?api_key=t0TVs3DtDT2H8Oy2Zy8m2eVrNsAVKAexjcZXUckd"
      },
      "neo_reference_id" : "3666542",
      "name" : "(2014 FW32)",
      "nasa_jpl_url" : "http://ssd.jpl.nasa.gov/sbdb.cgi?sstr=3666542",
      "absolute_magnitude_h" : 27.0,
      "estimated_diameter" : {
        "kilometers" : {
          "estimated_diameter_min" : 0.0105816886,
          "estimated_diameter_max" : 0.023661375
        },
        "meters" : {
          "estimated_diameter_min" : 10.5816885933,
          "estimated_diameter_max" : 23.6613750114
        },
        "miles" : {
          "estimated_diameter_min" : 0.0065751544,
          "estimated_diameter_max" : 0.0147024923
        },
        "feet" : {
          "estimated_diameter_min" : 34.7168272045,
          "estimated_diameter_max" : 77.6291855923
        }
      },
      "is_potentially_hazardous_asteroid" : false,
      "close_approach_data" : [ {
        "close_approach_date" : "1997-06-08",
        "epoch_date_close_approach" : 865753200000,
        "relative_velocity" : {
          "kilometers_per_second" : "17.5755186489",
          "kilometers_per_hour" : "63271.8671361822",
          "miles_per_hour" : "39314.6776658128"
        },
        "miss_distance" : {
          "astronomical" : "0.4462033643",
          "lunar" : "173.5731048584",
          "kilometers" : "66751072",
          "miles" : "41477192"
        },
        "orbiting_body" : "Earth"
      } ],
      "orbital_data" : {
        "orbit_id" : "6",
        "orbit_determination_date" : "2017-04-06 08:41:56",
        "orbit_uncertainty" : "7",
        "minimum_orbit_intersection" : ".00821746",
        "jupiter_tisserand_invariant" : "6.424",
        "epoch_osculation" : "2458000.5",
        "eccentricity" : ".1601673687156838",
        "semi_major_axis" : ".9309316010057678",
        "inclination" : "1.306458657831625",
        "ascending_node_longitude" : "138.9612307471585",
        "orbital_period" : "328.0764721385263",
        "perihelion_distance" : ".7818267360183951",
        "perihelion_argument" : "260.3485343284116",
        "aphelion_distance" : "1.08003646599314",
        "perihelion_time" : "2457932.474723712841",
        "mean_anomaly" : "74.64448548763092",
        "mean_motion" : "1.097305142466889",
        "equinox" : "J2000"
      }
    } ]
  }
}